[{"OBJECT_NAME":"S-NET D","OBJECT_ID":"2018-014G","EPOCH":"2026-03-09T16:11:15.224928","MEAN_MOTION":15.15628721,"ECCENTRICITY":0.00088114,"INCLINATION":97.5429,"RA_OF_ASC_NODE":334.1221,"ARG_OF_PERICENTER":15.2475,"MEAN_ANOMALY":344.9021,"EPHEMERIS_TYPE":0,"CLASSIFICATION_TYPE":"U","NORAD_CAT_ID":43186,"ELEMENT_SET_NO":999,"REV_AT_EPOCH":44368,"BSTAR":0.00039706572,"MEAN_MOTION_DOT":7.488e-5,"MEAN_MOTION_DDOT":0},{"OBJECT_NAME":"STARLINK-6371","OBJECT_ID":"2023-099BF","EPOCH":"2026-03-09T22:00:01.999584","MEAN_MOTION":15.14777306,"ECCENTRICITY":0.00021038,"INCLINATION":42.9994,"RA_OF_ASC_NODE":221.5775,"ARG_OF_PERICENTER":251.7868,"MEAN_ANOMALY":47.9764,"EPHEMERIS_TYPE":0,"CLASSIFICATION_TYPE":"U","NORAD_CAT_ID":57381,"ELEMENT_SET_NO":999,"REV_AT_EPOCH":568,"BSTAR":0.0056684981,"MEAN_MOTION_DOT":0.00108488,"MEAN_MOTION_DDOT":0}]
